start=new Date('2023-01-08T00:00:00.000Z').valueOf();
sats=[{"RCS_SIZE":"LARGE","MEAN_ANOMALY":"323.3465","SITE":"AFETR","RA_OF_ASC_NODE":"122.9904","SEMIMAJOR_AXIS":"6917.887","CENTER_NAME":"EARTH","GP_ID":"222425729","DECAY_DATE":null,"NORAD_CAT_ID":"51721","LAUNCH_DATE":"2022-02-21","OBJECT_TYPE":"PAYLOAD","OBJECT_NAME":"STARLINK-3524","MEAN_MOTION":"15.08837794","ELEMENT_SET_NO":"999","COUNTRY_CODE":"US","MEAN_MOTION_DDOT":"0.0000000000000","TIME_SYSTEM":"UTC","PERIOD":"95.438","EPHEMERIS_TYPE":"0","OBJECT_ID":"2022-016H","MEAN_ELEMENT_THEORY":"SGP4","TLE_LINE1":"1 51721U 22016H   23007.71313334 -.00000597  00000-0 -19347-4 0  9995","PERIAPSIS":"537.743","REV_AT_EPOCH":"4876","APOAPSIS":"541.761","REF_FRAME":"TEME","EPOCH":"2023-01-07T17:06:54.720576","MEAN_MOTION_DOT":"-0.00000597","ECCENTRICITY":"0.00029040","FILE":"3735488","TLE_LINE2":"2 51721  53.2174 122.9904 0002904  36.7726 323.3465 15.08837794 48766","CLASSIFICATION_TYPE":"U","ARG_OF_PERICENTER":"36.7726","BSTAR":"-0.00001934700000","INCLINATION":"53.2174"},{"INCLINATION":"53.2174","BSTAR":"0.00004917400000","CLASSIFICATION_TYPE":"U","ARG_OF_PERICENTER":"29.4690","ECCENTRICITY":"0.00025790","MEAN_MOTION_DOT":"0.00000494","FILE":"3735488","TLE_LINE2":"2 51722  53.2174 123.0581 0002579  29.4690 330.6447 15.08839168 48754","PERIAPSIS":"537.964","TLE_LINE1":"1 51722U 22016J   23007.69841951  .00000494  00000-0  49174-4 0  9999","REV_AT_EPOCH":"4875","APOAPSIS":"541.532","REF_FRAME":"TEME","EPOCH":"2023-01-07T16:45:43.445664","EPHEMERIS_TYPE":"0","OBJECT_ID":"2022-016J","MEAN_ELEMENT_THEORY":"SGP4","COUNTRY_CODE":"US","MEAN_MOTION_DDOT":"0.0000000000000","TIME_SYSTEM":"UTC","PERIOD":"95.438","MEAN_MOTION":"15.08839168","ELEMENT_SET_NO":"999","OBJECT_NAME":"STARLINK-3535","OBJECT_TYPE":"PAYLOAD","DECAY_DATE":null,"LAUNCH_DATE":"2022-02-21","NORAD_CAT_ID":"51722","SEMIMAJOR_AXIS":"6917.883","RA_OF_ASC_NODE":"123.0581","CENTER_NAME":"EARTH","GP_ID":"222424479","RCS_SIZE":"LARGE","SITE":"AFETR","MEAN_ANOMALY":"330.6447"},{"RCS_SIZE":"LARGE","SITE":"AFETR","MEAN_ANOMALY":"22.0496","SEMIMAJOR_AXIS":"6717.988","RA_OF_ASC_NODE":"346.9898","GP_ID":"222424229","CENTER_NAME":"EARTH","LAUNCH_DATE":"2022-02-21","NORAD_CAT_ID":"51723","DECAY_DATE":null,"OBJECT_TYPE":"PAYLOAD","OBJECT_NAME":"STARLINK-3531","ELEMENT_SET_NO":"999","MEAN_MOTION":"15.76681397","COUNTRY_CODE":"US","PERIOD":"91.331","MEAN_MOTION_DDOT":"0.0000000000000","TIME_SYSTEM":"UTC","EPHEMERIS_TYPE":"0","OBJECT_ID":"2022-016K","MEAN_ELEMENT_THEORY":"SGP4","APOAPSIS":"343.542","REV_AT_EPOCH":"5068","REF_FRAME":"TEME","TLE_LINE1":"1 51723U 22016K   23007.93432931 -.00001194  00000-0 -32553-5 0  9995","PERIAPSIS":"336.163","EPOCH":"2023-01-07T22:25:26.052384","MEAN_MOTION_DOT":"-0.00001194","ECCENTRICITY":"0.00054920","TLE_LINE2":"2 51723  53.2104 346.9898 0005492 338.0290  22.0496 15.76681397 50682","FILE":"3735488","CLASSIFICATION_TYPE":"U","ARG_OF_PERICENTER":"338.0290","BSTAR":"-0.00000325530000","INCLINATION":"53.2104"},{"EPHEMERIS_TYPE":"0","MEAN_ELEMENT_THEORY":"SGP4","OBJECT_ID":"2022-016L","TLE_LINE1":"1 51724U 22016L   23007.75730320  .00003004  00000-0  20685-3 0  9990","PERIAPSIS":"537.859","REF_FRAME":"TEME","APOAPSIS":"541.701","REV_AT_EPOCH":"4876","EPOCH":"2023-01-07T18:10:30.996480","MEAN_MOTION_DOT":"0.00003004","ECCENTRICITY":"0.00027770","FILE":"3735488","TLE_LINE2":"2 51724  53.2171 122.8001 0002777  26.6111 333.5023 15.08828711 48769","CLASSIFICATION_TYPE":"U","ARG_OF_PERICENTER":"26.6111","BSTAR":"0.00020685000000","INCLINATION":"53.2171","RCS_SIZE":"LARGE","SITE":"AFETR","MEAN_ANOMALY":"333.5023","SEMIMAJOR_AXIS":"6917.915","RA_OF_ASC_NODE":"122.8001","GP_ID":"222424979","CENTER_NAME":"EARTH","DECAY_DATE":null,"LAUNCH_DATE":"2022-02-21","NORAD_CAT_ID":"51724","OBJECT_TYPE":"PAYLOAD","OBJECT_NAME":"STARLINK-3529","MEAN_MOTION":"15.08828711","ELEMENT_SET_NO":"999","COUNTRY_CODE":"US","MEAN_MOTION_DDOT":"0.0000000000000","TIME_SYSTEM":"UTC","PERIOD":"95.438"},{"RA_OF_ASC_NODE":"123.0403","SEMIMAJOR_AXIS":"6917.913","GP_ID":"222425229","CENTER_NAME":"EARTH","RCS_SIZE":"LARGE","MEAN_ANOMALY":"337.6702","SITE":"AFETR","OBJECT_TYPE":"PAYLOAD","DECAY_DATE":null,"NORAD_CAT_ID":"51725","LAUNCH_DATE":"2022-02-21","OBJECT_NAME":"STARLINK-3522","COUNTRY_CODE":"US","TIME_SYSTEM":"UTC","MEAN_MOTION_DDOT":"0.0000000000000","PERIOD":"95.438","MEAN_MOTION":"15.08829201","ELEMENT_SET_NO":"999","TLE_LINE1":"1 51725U 22016M   23007.70210323  .00004327  00000-0  28991-3 0  9999","PERIAPSIS":"537.194","REV_AT_EPOCH":"4875","APOAPSIS":"542.363","REF_FRAME":"TEME","EPOCH":"2023-01-07T16:51:01.719072","EPHEMERIS_TYPE":"0","MEAN_ELEMENT_THEORY":"SGP4","OBJECT_ID":"2022-016M","CLASSIFICATION_TYPE":"U","ARG_OF_PERICENTER":"22.4453","MEAN_MOTION_DOT":"0.00004327","ECCENTRICITY":"0.00037360","FILE":"3735488","TLE_LINE2":"2 51725  53.2177 123.0403 0003736  22.4453 337.6702 15.08829201 48757","BSTAR":"0.00028991000000","INCLINATION":"53.2177"},{"OBJECT_TYPE":"PAYLOAD","DECAY_DATE":null,"NORAD_CAT_ID":"51726","LAUNCH_DATE":"2022-02-21","SEMIMAJOR_AXIS":"6917.924","RA_OF_ASC_NODE":"113.2063","CENTER_NAME":"EARTH","GP_ID":"222423979","RCS_SIZE":"LARGE","SITE":"AFETR","MEAN_ANOMALY":"309.0381","COUNTRY_CODE":"US","MEAN_MOTION_DDOT":"0.0000000000000","TIME_SYSTEM":"UTC","PERIOD":"95.438","MEAN_MOTION":"15.08825837","ELEMENT_SET_NO":"999","OBJECT_NAME":"STARLINK-3527","CLASSIFICATION_TYPE":"U","ARG_OF_PERICENTER":"51.0873","ECCENTRICITY":"0.00029460","MEAN_MOTION_DOT":"0.00000193","FILE":"3735488","TLE_LINE2":"2 51726  53.2156 113.2063 0002946  51.0873 309.0381 15.08825837 48896","PERIAPSIS":"537.751","TLE_LINE1":"1 51726U 22016N   23007.66624747  .00000193  00000-0  30242-4 0  9994","APOAPSIS":"541.827","REF_FRAME":"TEME","REV_AT_EPOCH":"4889","EPOCH":"2023-01-07T15:59:23.781408","EPHEMERIS_TYPE":"0","OBJECT_ID":"2022-016N","MEAN_ELEMENT_THEORY":"SGP4","INCLINATION":"53.2156","BSTAR":"0.00003024200000"},{"REV_AT_EPOCH":"4875","APOAPSIS":"542.099","REF_FRAME":"TEME","TLE_LINE1":"1 51727U 22016P   23007.69474571 -.00001543  00000-0 -78815-4 0  9996","PERIAPSIS":"537.468","EPOCH":"2023-01-07T16:40:26.029344","EPHEMERIS_TYPE":"0","MEAN_ELEMENT_THEORY":"SGP4","OBJECT_ID":"2022-016P","CLASSIFICATION_TYPE":"U","ARG_OF_PERICENTER":"40.2568","MEAN_MOTION_DOT":"-0.00001543","ECCENTRICITY":"0.00033470","TLE_LINE2":"2 51727  53.2187 123.0668 0003347  40.2568 319.8672 15.08827668 48759","FILE":"3735488","BSTAR":"-0.00007881500000","INCLINATION":"53.2187","SEMIMAJOR_AXIS":"6917.918","RA_OF_ASC_NODE":"123.0668","CENTER_NAME":"EARTH","GP_ID":"222424730","RCS_SIZE":"LARGE","MEAN_ANOMALY":"319.8672","SITE":"AFETR","OBJECT_TYPE":"PAYLOAD","LAUNCH_DATE":"2022-02-21","NORAD_CAT_ID":"51727","DECAY_DATE":null,"OBJECT_NAME":"STARLINK-3532","COUNTRY_CODE":"US","PERIOD":"95.438","MEAN_MOTION_DDOT":"0.0000000000000","TIME_SYSTEM":"UTC","ELEMENT_SET_NO":"999","MEAN_MOTION":"15.08827668"},{"BSTAR":"0.00020900000000","INCLINATION":"53.2198","TLE_LINE1":"1 51728U 22016Q   23007.65885518  .00003039  00000-0  20900-3 0  9991","PERIAPSIS":"538.027","APOAPSIS":"541.525","REV_AT_EPOCH":"4889","REF_FRAME":"TEME","EPOCH":"2023-01-07T15:48:45.087552","EPHEMERIS_TYPE":"0","OBJECT_ID":"2022-016Q","MEAN_ELEMENT_THEORY":"SGP4","CLASSIFICATION_TYPE":"U","ARG_OF_PERICENTER":"21.9244","ECCENTRICITY":"0.00025280","MEAN_MOTION_DOT":"0.00003039","FILE":"3735488","TLE_LINE2":"2 51728  53.2198 113.2480 0002528  21.9244 338.1856 15.08830070 48896","OBJECT_NAME":"STARLINK-3448","COUNTRY_CODE":"US","MEAN_MOTION_DDOT":"0.0000000000000","TIME_SYSTEM":"UTC","PERIOD":"95.438","MEAN_MOTION":"15.08830070","ELEMENT_SET_NO":"999","RA_OF_ASC_NODE":"113.2480","SEMIMAJOR_AXIS":"6917.911","GP_ID":"222425479","CENTER_NAME":"EARTH","RCS_SIZE":"LARGE","SITE":"AFETR","MEAN_ANOMALY":"338.1856","OBJECT_TYPE":"PAYLOAD","DECAY_DATE":null,"NORAD_CAT_ID":"51728","LAUNCH_DATE":"2022-02-21"},{"EPOCH":"2023-01-07T16:04:39.539712","APOAPSIS":"541.587","REF_FRAME":"TEME","REV_AT_EPOCH":"4889","PERIAPSIS":"537.920","TLE_LINE1":"1 51729U 22016R   23007.66990208  .00013605  00000-0  87132-3 0  9996","MEAN_ELEMENT_THEORY":"SGP4","OBJECT_ID":"2022-016R","EPHEMERIS_TYPE":"0","ARG_OF_PERICENTER":"25.4073","CLASSIFICATION_TYPE":"U","TLE_LINE2":"2 51729  53.2170 113.1957 0002650  25.4073 334.7049 15.08837343 48896","FILE":"3735488","MEAN_MOTION_DOT":"0.00013605","ECCENTRICITY":"0.00026500","BSTAR":"0.00087132000000","INCLINATION":"53.2170","GP_ID":"222425730","CENTER_NAME":"EARTH","RA_OF_ASC_NODE":"113.1957","SEMIMAJOR_AXIS":"6917.889","MEAN_ANOMALY":"334.7049","SITE":"AFETR","RCS_SIZE":"LARGE","OBJECT_TYPE":"PAYLOAD","NORAD_CAT_ID":"51729","LAUNCH_DATE":"2022-02-21","DECAY_DATE":null,"OBJECT_NAME":"STARLINK-3523","PERIOD":"95.438","MEAN_MOTION_DDOT":"0.0000000000000","TIME_SYSTEM":"UTC","COUNTRY_CODE":"US","ELEMENT_SET_NO":"999","MEAN_MOTION":"15.08837343"},{"BSTAR":"-0.00001763800000","INCLINATION":"53.2163","REV_AT_EPOCH":"4888","APOAPSIS":"541.661","REF_FRAME":"TEME","PERIAPSIS":"537.800","TLE_LINE1":"1 51730U 22016S   23007.58524529 -.00000569  00000-0 -17638-4 0  9990","EPOCH":"2023-01-07T14:02:45.193056","EPHEMERIS_TYPE":"0","OBJECT_ID":"2022-016S","MEAN_ELEMENT_THEORY":"SGP4","CLASSIFICATION_TYPE":"U","ARG_OF_PERICENTER":"26.7738","MEAN_MOTION_DOT":"-0.00000569","ECCENTRICITY":"0.00027900","TLE_LINE2":"2 51730  53.2163 113.5679 0002790  26.7738 333.3397 15.08844853 48886","FILE":"3735488","OBJECT_NAME":"STARLINK-3530","COUNTRY_CODE":"US","PERIOD":"95.437","TIME_SYSTEM":"UTC","MEAN_MOTION_DDOT":"0.0000000000000","ELEMENT_SET_NO":"999","MEAN_MOTION":"15.08844853","SEMIMAJOR_AXIS":"6917.866","RA_OF_ASC_NODE":"113.5679","GP_ID":"222424480","CENTER_NAME":"EARTH","RCS_SIZE":"LARGE","SITE":"AFETR","MEAN_ANOMALY":"333.3397","OBJECT_TYPE":"PAYLOAD","LAUNCH_DATE":"2022-02-21","NORAD_CAT_ID":"51730","DECAY_DATE":null}];
